IRIDIUM 116             
1 43072U 17083C   24255.32132943  .00000878  00000+0  30634-3 0  9991
2 43072  86.3954 231.0447 0002239  89.3817 270.7635 14.34221241351885
IRIDIUM 130             
1 43073U 17083D   24255.49892468  .00000869  00000+0  30317-3 0  9993
2 43073  86.3960 231.1834 0002240  90.2097 269.9355 14.34221414351855
IRIDIUM 151             
1 43074U 17083E   24255.47355108  .00002093  00000+0  73987-3 0  9998
2 43074  86.3953 231.0247 0002363  83.6140 276.5325 14.34223868351874
IRIDIUM 134             
1 43075U 17083F   24254.88369443  .00000062  00000+0  14962-4 0  9993
2 43075  86.3954 231.2704 0002233  91.2274 268.9178 14.34218091351755
IRIDIUM 137             
1 43076U 17083G   24255.45452861  .00000890  00000+0  31058-3 0  9998
2 43076  86.3958 231.1112 0002728  93.0768 267.0740 14.34220418351907
IRIDIUM 141             
1 43077U 17083H   24255.44818222  .00000949  00000+0  33158-3 0  9993
2 43077  86.3954 230.9812 0002240  82.9391 277.2060 14.34222573351908
IRIDIUM 153             
1 43078U 17083J   24255.60964767  .00000234  00000+0  76459-4 0  9997
2 43078  86.4027 199.4191 0002415  69.1107 291.0347 14.34217585353031
IRIDIUM 131             
1 43079U 17083K   24255.57503355  .00001014  00000+0  35483-3 0  9994
2 43079  86.3959 231.0712 0002497  87.9119 272.2363 14.34222645351858
