<?xml version="1.0" encoding="UTF-8"?>
<ndm xmlns:xsi="http://www.w3.org/2001/XMLSchema-instance" xsi:noNamespaceSchemaLocation="https://sanaregistry.org/r/ndmxml_unqualified/ndmxml-2.0.0-master-2.0.xsd">
<omm id="CCSDS_OMM_VERS" version="2.0">
<header><CREATION_DATE/><ORIGINATOR/></header><body><segment><metadata><OBJECT_NAME>IRIDIUM 116</OBJECT_NAME><OBJECT_ID>2017-083C</OBJECT_ID><CENTER_NAME>EARTH</CENTER_NAME><REF_FRAME>TEME</REF_FRAME><TIME_SYSTEM>UTC</TIME_SYSTEM><MEAN_ELEMENT_THEORY>SGP4</MEAN_ELEMENT_THEORY></metadata><data><meanElements><EPOCH>2024-09-11T07:42:42.862752</EPOCH><MEAN_MOTION>14.34221241</MEAN_MOTION><ECCENTRICITY>.0002239</ECCENTRICITY><INCLINATION>86.3954</INCLINATION><RA_OF_ASC_NODE>231.0447</RA_OF_ASC_NODE><ARG_OF_PERICENTER>89.3817</ARG_OF_PERICENTER><MEAN_ANOMALY>270.7635</MEAN_ANOMALY></meanElements><tleParameters><EPHEMERIS_TYPE>0</EPHEMERIS_TYPE><CLASSIFICATION_TYPE>U</CLASSIFICATION_TYPE><NORAD_CAT_ID>43072</NORAD_CAT_ID><ELEMENT_SET_NO>999</ELEMENT_SET_NO><REV_AT_EPOCH>35188</REV_AT_EPOCH><BSTAR>.30634E-3</BSTAR><MEAN_MOTION_DOT>.878E-5</MEAN_MOTION_DOT><MEAN_MOTION_DDOT>0</MEAN_MOTION_DDOT></tleParameters></data></segment></body></omm>
<omm id="CCSDS_OMM_VERS" version="2.0">
<header><CREATION_DATE/><ORIGINATOR/></header><body><segment><metadata><OBJECT_NAME>IRIDIUM 130</OBJECT_NAME><OBJECT_ID>2017-083D</OBJECT_ID><CENTER_NAME>EARTH</CENTER_NAME><REF_FRAME>TEME</REF_FRAME><TIME_SYSTEM>UTC</TIME_SYSTEM><MEAN_ELEMENT_THEORY>SGP4</MEAN_ELEMENT_THEORY></metadata><data><meanElements><EPOCH>2024-09-11T11:58:27.092352</EPOCH><MEAN_MOTION>14.34221414</MEAN_MOTION><ECCENTRICITY>.000224</ECCENTRICITY><INCLINATION>86.3960</INCLINATION><RA_OF_ASC_NODE>231.1834</RA_OF_ASC_NODE><ARG_OF_PERICENTER>90.2097</ARG_OF_PERICENTER><MEAN_ANOMALY>269.9355</MEAN_ANOMALY></meanElements><tleParameters><EPHEMERIS_TYPE>0</EPHEMERIS_TYPE><CLASSIFICATION_TYPE>U</CLASSIFICATION_TYPE><NORAD_CAT_ID>43073</NORAD_CAT_ID><ELEMENT_SET_NO>999</ELEMENT_SET_NO><REV_AT_EPOCH>35185</REV_AT_EPOCH><BSTAR>.30317E-3</BSTAR><MEAN_MOTION_DOT>.869E-5</MEAN_MOTION_DOT><MEAN_MOTION_DDOT>0</MEAN_MOTION_DDOT></tleParameters></data></segment></body></omm>
<omm id="CCSDS_OMM_VERS" version="2.0">
<header><CREATION_DATE/><ORIGINATOR/></header><body><segment><metadata><OBJECT_NAME>IRIDIUM 151</OBJECT_NAME><OBJECT_ID>2017-083E</OBJECT_ID><CENTER_NAME>EARTH</CENTER_NAME><REF_FRAME>TEME</REF_FRAME><TIME_SYSTEM>UTC</TIME_SYSTEM><MEAN_ELEMENT_THEORY>SGP4</MEAN_ELEMENT_THEORY></metadata><data><meanElements><EPOCH>2024-09-11T11:21:54.813312</EPOCH><MEAN_MOTION>14.34223868</MEAN_MOTION><ECCENTRICITY>.0002363</ECCENTRICITY><INCLINATION>86.3953</INCLINATION><RA_OF_ASC_NODE>231.0247</RA_OF_ASC_NODE><ARG_OF_PERICENTER>83.6140</ARG_OF_PERICENTER><MEAN_ANOMALY>276.5325</MEAN_ANOMALY></meanElements><tleParameters><EPHEMERIS_TYPE>0</EPHEMERIS_TYPE><CLASSIFICATION_TYPE>U</CLASSIFICATION_TYPE><NORAD_CAT_ID>43074</NORAD_CAT_ID><ELEMENT_SET_NO>999</ELEMENT_SET_NO><REV_AT_EPOCH>35187</REV_AT_EPOCH><BSTAR>.73987E-3</BSTAR><MEAN_MOTION_DOT>.2093E-4</MEAN_MOTION_DOT><MEAN_MOTION_DDOT>0</MEAN_MOTION_DDOT></tleParameters></data></segment></body></omm>
<omm id="CCSDS_OMM_VERS" version="2.0">
<header><CREATION_DATE/><ORIGINATOR/></header><body><segment><metadata><OBJECT_NAME>IRIDIUM 134</OBJECT_NAME><OBJECT_ID>2017-083F</OBJECT_ID><CENTER_NAME>EARTH</CENTER_NAME><REF_FRAME>TEME</REF_FRAME><TIME_SYSTEM>UTC</TIME_SYSTEM><MEAN_ELEMENT_THEORY>SGP4</MEAN_ELEMENT_THEORY></metadata><data><meanElements><EPOCH>2024-09-10T21:12:31.198752</EPOCH><MEAN_MOTION>14.34218091</MEAN_MOTION><ECCENTRICITY>.0002233</ECCENTRICITY><INCLINATION>86.3954</INCLINATION><RA_OF_ASC_NODE>231.2704</RA_OF_ASC_NODE><ARG_OF_PERICENTER>91.2274</ARG_OF_PERICENTER><MEAN_ANOMALY>268.9178</MEAN_ANOMALY></meanElements><tleParameters><EPHEMERIS_TYPE>0</EPHEMERIS_TYPE><CLASSIFICATION_TYPE>U</CLASSIFICATION_TYPE><NORAD_CAT_ID>43075</NORAD_CAT_ID><ELEMENT_SET_NO>999</ELEMENT_SET_NO><REV_AT_EPOCH>35175</REV_AT_EPOCH><BSTAR>.14962E-4</BSTAR><MEAN_MOTION_DOT>.62E-6</MEAN_MOTION_DOT><MEAN_MOTION_DDOT>0</MEAN_MOTION_DDOT></tleParameters></data></segment></body></omm>
<omm id="CCSDS_OMM_VERS" version="2.0">
<header><CREATION_DATE/><ORIGINATOR/></header><body><segment><metadata><OBJECT_NAME>IRIDIUM 137</OBJECT_NAME><OBJECT_ID>2017-083G</OBJECT_ID><CENTER_NAME>EARTH</CENTER_NAME><REF_FRAME>TEME</REF_FRAME><TIME_SYSTEM>UTC</TIME_SYSTEM><MEAN_ELEMENT_THEORY>SGP4</MEAN_ELEMENT_THEORY></metadata><data><meanElements><EPOCH>2024-09-11T10:54:31.271904</EPOCH><MEAN_MOTION>14.34220418</MEAN_MOTION><ECCENTRICITY>.0002728</ECCENTRICITY><INCLINATION>86.3958</INCLINATION><RA_OF_ASC_NODE>231.1112</RA_OF_ASC_NODE><ARG_OF_PERICENTER>93.0768</ARG_OF_PERICENTER><MEAN_ANOMALY>267.0740</MEAN_ANOMALY></meanElements><tleParameters><EPHEMERIS_TYPE>0</EPHEMERIS_TYPE><CLASSIFICATION_TYPE>U</CLASSIFICATION_TYPE><NORAD_CAT_ID>43076</NORAD_CAT_ID><ELEMENT_SET_NO>999</ELEMENT_SET_NO><REV_AT_EPOCH>35190</REV_AT_EPOCH><BSTAR>.31058E-3</BSTAR><MEAN_MOTION_DOT>.89E-5</MEAN_MOTION_DOT><MEAN_MOTION_DDOT>0</MEAN_MOTION_DDOT></tleParameters></data></segment></body></omm>
<omm id="CCSDS_OMM_VERS" version="2.0">
<header><CREATION_DATE/><ORIGINATOR/></header><body><segment><metadata><OBJECT_NAME>IRIDIUM 141</OBJECT_NAME><OBJECT_ID>2017-083H</OBJECT_ID><CENTER_NAME>EARTH</CENTER_NAME><REF_FRAME>TEME</REF_FRAME><TIME_SYSTEM>UTC</TIME_SYSTEM><MEAN_ELEMENT_THEORY>SGP4</MEAN_ELEMENT_THEORY></metadata><data><meanElements><EPOCH>2024-09-11T10:45:22.943808</EPOCH><MEAN_MOTION>14.34222573</MEAN_MOTION><ECCENTRICITY>.000224</ECCENTRICITY><INCLINATION>86.3954</INCLINATION><RA_OF_ASC_NODE>230.9812</RA_OF_ASC_NODE><ARG_OF_PERICENTER>82.9391</ARG_OF_PERICENTER><MEAN_ANOMALY>277.2060</MEAN_ANOMALY></meanElements><tleParameters><EPHEMERIS_TYPE>0</EPHEMERIS_TYPE><CLASSIFICATION_TYPE>U</CLASSIFICATION_TYPE><NORAD_CAT_ID>43077</NORAD_CAT_ID><ELEMENT_SET_NO>999</ELEMENT_SET_NO><REV_AT_EPOCH>35190</REV_AT_EPOCH><BSTAR>.33158E-3</BSTAR><MEAN_MOTION_DOT>.949E-5</MEAN_MOTION_DOT><MEAN_MOTION_DDOT>0</MEAN_MOTION_DDOT></tleParameters></data></segment></body></omm>
<omm id="CCSDS_OMM_VERS" version="2.0">
<header><CREATION_DATE/><ORIGINATOR/></header><body><segment><metadata><OBJECT_NAME>IRIDIUM 153</OBJECT_NAME><OBJECT_ID>2017-083J</OBJECT_ID><CENTER_NAME>EARTH</CENTER_NAME><REF_FRAME>TEME</REF_FRAME><TIME_SYSTEM>UTC</TIME_SYSTEM><MEAN_ELEMENT_THEORY>SGP4</MEAN_ELEMENT_THEORY></metadata><data><meanElements><EPOCH>2024-09-11T14:37:53.558688</EPOCH><MEAN_MOTION>14.34217585</MEAN_MOTION><ECCENTRICITY>.0002415</ECCENTRICITY><INCLINATION>86.4027</INCLINATION><RA_OF_ASC_NODE>199.4191</RA_OF_ASC_NODE><ARG_OF_PERICENTER>69.1107</ARG_OF_PERICENTER><MEAN_ANOMALY>291.0347</MEAN_ANOMALY></meanElements><tleParameters><EPHEMERIS_TYPE>0</EPHEMERIS_TYPE><CLASSIFICATION_TYPE>U</CLASSIFICATION_TYPE><NORAD_CAT_ID>43078</NORAD_CAT_ID><ELEMENT_SET_NO>999</ELEMENT_SET_NO><REV_AT_EPOCH>35303</REV_AT_EPOCH><BSTAR>.76459E-4</BSTAR><MEAN_MOTION_DOT>.234E-5</MEAN_MOTION_DOT><MEAN_MOTION_DDOT>0</MEAN_MOTION_DDOT></tleParameters></data></segment></body></omm>
<omm id="CCSDS_OMM_VERS" version="2.0">
<header><CREATION_DATE/><ORIGINATOR/></header><body><segment><metadata><OBJECT_NAME>IRIDIUM 131</OBJECT_NAME><OBJECT_ID>2017-083K</OBJECT_ID><CENTER_NAME>EARTH</CENTER_NAME><REF_FRAME>TEME</REF_FRAME><TIME_SYSTEM>UTC</TIME_SYSTEM><MEAN_ELEMENT_THEORY>SGP4</MEAN_ELEMENT_THEORY></metadata><data><meanElements><EPOCH>2024-09-11T13:48:02.898720</EPOCH><MEAN_MOTION>14.34222645</MEAN_MOTION><ECCENTRICITY>.0002497</ECCENTRICITY><INCLINATION>86.3959</INCLINATION><RA_OF_ASC_NODE>231.0712</RA_OF_ASC_NODE><ARG_OF_PERICENTER>87.9119</ARG_OF_PERICENTER><MEAN_ANOMALY>272.2363</MEAN_ANOMALY></meanElements><tleParameters><EPHEMERIS_TYPE>0</EPHEMERIS_TYPE><CLASSIFICATION_TYPE>U</CLASSIFICATION_TYPE><NORAD_CAT_ID>43079</NORAD_CAT_ID><ELEMENT_SET_NO>999</ELEMENT_SET_NO><REV_AT_EPOCH>35185</REV_AT_EPOCH><BSTAR>.35483E-3</BSTAR><MEAN_MOTION_DOT>.1014E-4</MEAN_MOTION_DOT><MEAN_MOTION_DDOT>0</MEAN_MOTION_DDOT></tleParameters></data></segment></body></omm>

</ndm>
